{"type": "FeatureCollection", "features": [{"type": "Feature", "properties": {"norad_id": 24946, "name": "IRIDIUM 33", "group": "iridium-33-debris", "lat": 84.9221435460631, "lon": -156.36130586155784, "alt_km": 769.4208001788102, "timestamp": "2025-12-10T23:33:13.202773+00:00", "meta": {"OBJECT_NAME": "IRIDIUM 33", "OBJECT_ID": "1997-051C", "EPOCH": "2025-12-10T11:24:15.672096", "MEAN_MOTION": 14.35034929, "ECCENTRICITY": 0.00067734, "INCLINATION": 86.387, "RA_OF_ASC_NODE": 69.1722, "ARG_OF_PERICENTER": 208.6208, "MEAN_ANOMALY": 151.4617, "EPHEMERIS_TYPE": 0, "CLASSIFICATION_TYPE": "U", "NORAD_CAT_ID": 24946, "ELEMENT_SET_NO": 999, "REV_AT_EPOCH": 47802, "BSTAR": 0.00019569961, "MEAN_MOTION_DOT": 5.77e-06, "MEAN_MOTION_DDOT": 0}, "tle": {"line1": "1 24946U 97051C   25344.47518139  .00000577  00000+0  19570-3 0  9996", "line2": "2 24946  86.3870  69.1722 0006773 208.6208 151.4617 14.35034929478021"}}, "geometry": {"type": "Point", "coordinates": [-156.36130586155784, 84.9221435460631]}}, {"type": "Feature", "properties": {"norad_id": 33773, "name": "IRIDIUM 33 DEB", "group": "iridium-33-debris", "lat": -1.4990271196527474, "lon": 61.24028466783563, "alt_km": 758.8114383050206, "timestamp": "2025-12-10T23:33:13.202816+00:00", "meta": {"OBJECT_NAME": "IRIDIUM 33 DEB", "OBJECT_ID": "1997-051L", "EPOCH": "2025-12-10T11:54:46.043136", "MEAN_MOTION": 14.43249294, "ECCENTRICITY": 0.00122729, "INCLINATION": 86.4013, "RA_OF_ASC_NODE": 61.5401, "ARG_OF_PERICENTER": 153.0085, "MEAN_ANOMALY": 207.1757, "EPHEMERIS_TYPE": 0, "CLASSIFICATION_TYPE": "U", "NORAD_CAT_ID": 33773, "ELEMENT_SET_NO": 999, "REV_AT_EPOCH": 88315, "BSTAR": 0.00048914009, "MEAN_MOTION_DOT": 1.666e-05, "MEAN_MOTION_DDOT": 0}, "tle": {"line1": "1 33773U 97051L   25344.49636624  .00001666  00000+0  48914-3 0  9990", "line2": "2 33773  86.4013  61.5401 0012272 153.0085 207.1757 14.43249294883156"}}, "geometry": {"type": "Point", "coordinates": [61.24028466783563, -1.4990271196527474]}}, {"type": "Feature", "properties": {"norad_id": 33775, "name": "IRIDIUM 33 DEB", "group": "iridium-33-debris", "lat": 85.05528006556843, "lon": -177.0017917217126, "alt_km": 742.2168312920776, "timestamp": "2025-12-10T23:33:13.202841+00:00", "meta": {"OBJECT_NAME": "IRIDIUM 33 DEB", "OBJECT_ID": "1997-051N", "EPOCH": "2025-12-10T11:30:55.922688", "MEAN_MOTION": 14.41461021, "ECCENTRICITY": 0.00140482, "INCLINATION": 86.3639, "RA_OF_ASC_NODE": 50.5184, "ARG_OF_PERICENTER": 161.5462, "MEAN_ANOMALY": 210.7248, "EPHEMERIS_TYPE": 0, "CLASSIFICATION_TYPE": "U", "NORAD_CAT_ID": 33775, "ELEMENT_SET_NO": 999, "REV_AT_EPOCH": 88108, "BSTAR": 0.00051864419, "MEAN_MOTION_DOT": 1.703e-05, "MEAN_MOTION_DDOT": 0}, "tle": {"line1": "1 33775U 97051N   25344.47981392  .00001703  00000+0  51864-3 0  9995", "line2": "2 33775  86.3639  50.5184 0014048 161.5462 210.7248 14.41461021881080"}}, "geometry": {"type": "Point", "coordinates": [-177.0017917217126, 85.05528006556843]}}, {"type": "Feature", "properties": {"norad_id": 33776, "name": "IRIDIUM 33 DEB", "group": "iridium-33-debris", "lat": -16.37648695903006, "lon": 80.45532280091597, "alt_km": 777.7614362569557, "timestamp": "2025-12-10T23:33:13.202854+00:00", "meta": {"OBJECT_NAME": "IRIDIUM 33 DEB", "OBJECT_ID": "1997-051P", "EPOCH": "2025-12-10T13:39:27.777600", "MEAN_MOTION": 14.38229346, "ECCENTRICITY": 0.00140925, "INCLINATION": 86.4038, "RA_OF_ASC_NODE": 81.6874, "ARG_OF_PERICENTER": 197.5337, "MEAN_ANOMALY": 172.5443, "EPHEMERIS_TYPE": 0, "CLASSIFICATION_TYPE": "U", "NORAD_CAT_ID": 33776, "ELEMENT_SET_NO": 999, "REV_AT_EPOCH": 88051, "BSTAR": 0.0005085042, "MEAN_MOTION_DOT": 1.565e-05, "MEAN_MOTION_DDOT": 0}, "tle": {"line1": "1 33776U 97051P   25344.56907150  .00001565  00000+0  50850-3 0  9996", "line2": "2 33776  86.4038  81.6874 0014092 197.5337 172.5443 14.38229346880512"}}, "geometry": {"type": "Point", "coordinates": [80.45532280091597, -16.37648695903006]}}, {"type": "Feature", "properties": {"norad_id": 33777, "name": "IRIDIUM 33 DEB", "group": "iridium-33-debris", "lat": 21.40328587313594, "lon": 37.39067201970022, "alt_km": 709.385056910397, "timestamp": "2025-12-10T23:33:13.202865+00:00", "meta": {"OBJECT_NAME": "IRIDIUM 33 DEB", "OBJECT_ID": "1997-051Q", "EPOCH": "2025-12-10T13:33:22.021344", "MEAN_MOTION": 14.55588213, "ECCENTRICITY": 0.00050754, "INCLINATION": 86.3784, "RA_OF_ASC_NODE": 36.1493, "ARG_OF_PERICENTER": 259.0023, "MEAN_ANOMALY": 101.0614, "EPHEMERIS_TYPE": 0, "CLASSIFICATION_TYPE": "U", "NORAD_CAT_ID": 33777, "ELEMENT_SET_NO": 999, "REV_AT_EPOCH": 88502, "BSTAR": 0.0013602891, "MEAN_MOTION_DOT": 5.952e-05, "MEAN_MOTION_DDOT": 0}, "tle": {"line1": "1 33777U 97051Q   25344.56483821  .00005952  00000+0  13603-2 0  9999", "line2": "2 33777  86.3784  36.1493 0005075 259.0023 101.0614 14.55588213885027"}}, "geometry": {"type": "Point", "coordinates": [37.39067201970022, 21.40328587313594]}}, {"type": "Feature", "properties": {"norad_id": 33850, "name": "IRIDIUM 33 DEB", "group": "iridium-33-debris", "lat": 69.61711572213021, "lon": 40.85050629484307, "alt_km": 745.6927114210412, "timestamp": "2025-12-10T23:33:13.202876+00:00", "meta": {"OBJECT_NAME": "IRIDIUM 33 DEB", "OBJECT_ID": "1997-051T", "EPOCH": "2025-12-10T03:29:36.109248", "MEAN_MOTION": 14.42137967, "ECCENTRICITY": 0.00119531, "INCLINATION": 86.3419, "RA_OF_ASC_NODE": 31.2952, "ARG_OF_PERICENTER": 168.989, "MEAN_ANOMALY": 244.4174, "EPHEMERIS_TYPE": 0, "CLASSIFICATION_TYPE": "U", "NORAD_CAT_ID": 33850, "ELEMENT_SET_NO": 999, "REV_AT_EPOCH": 88115, "BSTAR": 0.00047039968, "MEAN_MOTION_DOT": 1.567e-05, "MEAN_MOTION_DDOT": 0}, "tle": {"line1": "1 33850U 97051T   25344.14555682  .00001567  00000+0  47040-3 0  9991", "line2": "2 33850  86.3419  31.2952 0011953 168.9890 244.4174 14.42137967881157"}}, "geometry": {"type": "Point", "coordinates": [40.85050629484307, 69.61711572213021]}}, {"type": "Feature", "properties": {"norad_id": 33853, "name": "IRIDIUM 33 DEB", "group": "iridium-33-debris", "lat": 7.313277915306394, "lon": -8.902850535831718, "alt_km": 985.8498985340775, "timestamp": "2025-12-10T23:33:13.202887+00:00", "meta": {"OBJECT_NAME": "IRIDIUM 33 DEB", "OBJECT_ID": "1997-051W", "EPOCH": "2025-12-09T12:13:24.016800", "MEAN_MOTION": 13.99031995, "ECCENTRICITY": 0.02069783, "INCLINATION": 85.9998, "RA_OF_ASC_NODE": 351.2277, "ARG_OF_PERICENTER": 245.8173, "MEAN_ANOMALY": 269.932, "EPHEMERIS_TYPE": 0, "CLASSIFICATION_TYPE": "U", "NORAD_CAT_ID": 33853, "ELEMENT_SET_NO": 999, "REV_AT_EPOCH": 85300, "BSTAR": 0.0029960339, "MEAN_MOTION_DOT": 5.22e-05, "MEAN_MOTION_DDOT": 0}, "tle": {"line1": "1 33853U 97051W   25343.50930575  .00005220  00000+0  29960-2 0  9991", "line2": "2 33853  85.9998 351.2277 0206978 245.8173 269.9320 13.99031995853007"}}, "geometry": {"type": "Point", "coordinates": [-8.902850535831718, 7.313277915306394]}}, {"type": "Feature", "properties": {"norad_id": 33860, "name": "IRIDIUM 33 DEB", "group": "iridium-33-debris", "lat": -24.674194614610414, "lon": -150.31867264652067, "alt_km": 680.4023851442971, "timestamp": "2025-12-10T23:33:13.202898+00:00", "meta": {"OBJECT_NAME": "IRIDIUM 33 DEB", "OBJECT_ID": "1997-051AD", "EPOCH": "2025-12-10T09:47:56.154048", "MEAN_MOTION": 14.67318543, "ECCENTRICITY": 0.00077556, "INCLINATION": 86.3835, "RA_OF_ASC_NODE": 28.2699, "ARG_OF_PERICENTER": 6.0738, "MEAN_ANOMALY": 53.1424, "EPHEMERIS_TYPE": 0, "CLASSIFICATION_TYPE": "U", "NORAD_CAT_ID": 33860, "ELEMENT_SET_NO": 999, "REV_AT_EPOCH": 88688, "BSTAR": 0.0017973953, "MEAN_MOTION_DOT": 0.00010173, "MEAN_MOTION_DDOT": 0}, "tle": {"line1": "1 33860U 97051AD  25344.40828882  .00010173  00000+0  17974-2 0  9991", "line2": "2 33860  86.3835  28.2699 0007755   6.0738  53.1424 14.67318543886888"}}, "geometry": {"type": "Point", "coordinates": [-150.31867264652067, -24.674194614610414]}}, {"type": "Feature", "properties": {"norad_id": 33862, "name": "IRIDIUM 33 DEB", "group": "iridium-33-debris", "lat": -46.88608299331357, "lon": -137.84848757193458, "alt_km": 703.0755485809568, "timestamp": "2025-12-10T23:33:13.202912+00:00", "meta": {"OBJECT_NAME": "IRIDIUM 33 DEB", "OBJECT_ID": "1997-051AF", "EPOCH": "2025-12-10T15:04:48.341856", "MEAN_MOTION": 14.69416513, "ECCENTRICITY": 0.00536404, "INCLINATION": 86.4089, "RA_OF_ASC_NODE": 38.461, "ARG_OF_PERICENTER": 76.255, "MEAN_ANOMALY": 83.9048, "EPHEMERIS_TYPE": 0, "CLASSIFICATION_TYPE": "U", "NORAD_CAT_ID": 33862, "ELEMENT_SET_NO": 999, "REV_AT_EPOCH": 88792, "BSTAR": 0.0020287642, "MEAN_MOTION_DOT": 0.00012304, "MEAN_MOTION_DDOT": 0}, "tle": {"line1": "1 33862U 97051AF  25344.62833729  .00012304  00000+0  20288-2 0  9993", "line2": "2 33862  86.4089  38.4610 0053640  76.2550  83.9048 14.69416513887920"}}, "geometry": {"type": "Point", "coordinates": [-137.84848757193458, -46.88608299331357]}}, {"type": "Feature", "properties": {"norad_id": 33866, "name": "IRIDIUM 33 DEB", "group": "iridium-33-debris", "lat": -32.118003737093744, "lon": -83.89248901146327, "alt_km": 755.299458195218, "timestamp": "2025-12-10T23:33:13.202923+00:00", "meta": {"OBJECT_NAME": "IRIDIUM 33 DEB", "OBJECT_ID": "1997-051AK", "EPOCH": "2025-12-10T14:12:58.238208", "MEAN_MOTION": 14.25263648, "ECCENTRICITY": 0.0114315, "INCLINATION": 86.2998, "RA_OF_ASC_NODE": 93.944, "ARG_OF_PERICENTER": 168.2247, "MEAN_ANOMALY": 207.9302, "EPHEMERIS_TYPE": 0, "CLASSIFICATION_TYPE": "U", "NORAD_CAT_ID": 33866, "ELEMENT_SET_NO": 999, "REV_AT_EPOCH": 86780, "BSTAR": 0.001135173, "MEAN_MOTION_DOT": 2.877e-05, "MEAN_MOTION_DDOT": 0}, "tle": {"line1": "1 33866U 97051AK  25344.59234072  .00002877  00000+0  11352-2 0  9995", "line2": "2 33866  86.2998  93.9440 0114315 168.2247 207.9302 14.25263648867807"}}, "geometry": {"type": "Point", "coordinates": [-83.89248901146327, -32.118003737093744]}}]}